GLOBALSTAR M069         
1 31573U 07020C   26201.30172442 -.00000053  00000+0  36132-3 0  9998
2 31573  52.0014 158.3977 0001522 221.2256 303.6484 12.23472403882850
GLOBALSTAR M072         
1 31574U 07020D   26201.20898610 -.00000091  00000+0 -95288-4 0  9991
2 31574  51.9951  12.3323 0001649  44.7550 126.2120 11.91658745878915
GLOBALSTAR M066         
1 32265U 07048C   26200.75662172 -.00000039  00000+0  46950-3 0  9992
2 32265  51.9612 324.4163 0005539 110.8827  54.0199 12.30390020864237
GLOBALSTAR M079         
1 37188U 10054A   26201.18044230 -.00000106  00000+0 -12522-4 0  9994
2 37188  52.0057   8.2335 0001124  85.7939  86.4029 12.62266428726719
GLOBALSTAR M074         
1 37189U 10054B   26200.88838347 -.00000106  00000+0 -11119-4 0  9992
2 37189  52.0035   8.3830 0000854  99.8307  64.4636 12.62262061727283
GLOBALSTAR M076         
1 37190U 10054C   26201.23308215 -.00000094  00000+0  54677-4 0  9991
2 37190  52.0050   7.5399 0001091  98.8277  72.5004 12.62262546727043
GLOBALSTAR M077         
1 37191U 10054D   26201.00659339 -.00000098  00000+0 -37162-3 0  9997
2 37191  51.9961  95.9950 0002181 233.9275 225.5768 11.67547200724971
GLOBALSTAR M075         
1 37192U 10054E   26201.00363302 -.00000102  00000+0  76658-5 0  9990
2 37192  51.9955  50.2739 0000786  71.7784  77.0132 12.62267915726083
GLOBALSTAR M073         
1 37193U 10054F   26201.29149275 -.00000098  00000+0  32575-4 0  9996
2 37193  52.0081 323.5244 0000998 104.2906 271.5163 12.62266925728117
GLOBALSTAR M083         
1 37739U 11033A   26201.22937385 -.00000090  00000+0  76341-4 0  9991
2 37739  51.9855 271.8981 0000686 111.4539 283.1886 12.62264366697123
GLOBALSTAR M088         
1 37740U 11033B   26201.30542031 -.00000098  00000+0  30622-4 0  9992
2 37740  52.0191 178.1717 0000131  38.5229 100.6158 12.62269494692673
GLOBALSTAR M091         
1 37741U 11033C   26201.24486061 -.00000085  00000+0  10248-3 0  9993
2 37741  51.9988 141.2728 0000546  32.9059 131.4356 12.62264293693459
GLOBALSTAR M085         
1 37742U 11033D   26201.06769323 -.00000089  00000+0  83579-4 0  9991
2 37742  52.0128  93.1334 0000872  49.4363  89.4416 12.62264455693942
GLOBALSTAR M081         
1 37743U 11033E   26201.09480976 -.00000091  00000+0  73001-4 0  9991
2 37743  51.9960  95.4494 0000752  61.8591  80.1790 12.62265367694098
GLOBALSTAR M089         
1 37744U 11033F   26201.06019925 -.00000105  00000+0 -56938-5 0  9999
2 37744  51.9941  49.7070 0000724  95.1052  70.7259 12.62267629694932
GLOBALSTAR M084         
1 38040U 11080A   26201.19930170 -.00000088  00000+0  85879-4 0  9993
2 38040  52.0011 276.7843 0000718 138.8712 239.1082 12.62263698672936
